start=new Date('2023-05-02T00:00:00.000Z').valueOf();
sats=[{"GP_ID":"231017058","ECCENTRICITY":"0.00015160","CENTER_NAME":"EARTH","CLASSIFICATION_TYPE":"U","APOAPSIS":"548.225","EPOCH":"2023-05-01T11:04:39.273888","OBJECT_TYPE":"PAYLOAD","MEAN_ANOMALY":"273.3251","NORAD_CAT_ID":"46051","PERIAPSIS":"546.125","SEMIMAJOR_AXIS":"6925.310","FILE":"3898258","MEAN_MOTION_DOT":"0.00003715","OBJECT_ID":"2020-055AA","INCLINATION":"53.0526","EPHEMERIS_TYPE":"0","RA_OF_ASC_NODE":"119.8476","PERIOD":"95.591","TLE_LINE1":"1 46051U 20055AA  23121.46156567  .00003715  00000-0  26806-3 0  9998","MEAN_ELEMENT_THEORY":"SGP4","OBJECT_NAME":"STARLINK-1540","SITE":"AFETR","LAUNCH_DATE":"2020-08-07","TIME_SYSTEM":"UTC","ELEMENT_SET_NO":"999","TLE_LINE2":"2 46051  53.0526 119.8476 0001516  86.7912 273.3251 15.06412700151805","DECAY_DATE":null,"ARG_OF_PERICENTER":"86.7912","RCS_SIZE":"LARGE","BSTAR":"0.00026806000000","REV_AT_EPOCH":"15180","COUNTRY_CODE":"US","MEAN_MOTION_DDOT":"0.0000000000000","REF_FRAME":"TEME","MEAN_MOTION":"15.06412700"},{"TLE_LINE2":"2 46052  53.0540 119.6128 0001506  79.2380 280.8779 15.06413507151285","ELEMENT_SET_NO":"999","TIME_SYSTEM":"UTC","SITE":"AFETR","LAUNCH_DATE":"2020-08-07","OBJECT_NAME":"STARLINK-1541","MEAN_ELEMENT_THEORY":"SGP4","MEAN_MOTION":"15.06413507","REF_FRAME":"TEME","MEAN_MOTION_DDOT":"0.0000000000000","COUNTRY_CODE":"US","REV_AT_EPOCH":"15128","RCS_SIZE":"LARGE","DECAY_DATE":null,"ARG_OF_PERICENTER":"79.2380","BSTAR":"0.00015513000000","PERIAPSIS":"546.129","MEAN_ANOMALY":"280.8779","OBJECT_TYPE":"PAYLOAD","NORAD_CAT_ID":"46052","EPOCH":"2023-05-01T12:18:58.460832","APOAPSIS":"548.215","CLASSIFICATION_TYPE":"U","CENTER_NAME":"EARTH","ECCENTRICITY":"0.00015060","GP_ID":"230994393","TLE_LINE1":"1 46052U 20055AB  23121.51317663  .00002031  00000-0  15513-3 0  9994","PERIOD":"95.591","RA_OF_ASC_NODE":"119.6128","EPHEMERIS_TYPE":"0","INCLINATION":"53.0540","FILE":"3898093","OBJECT_ID":"2020-055AB","SEMIMAJOR_AXIS":"6925.307","MEAN_MOTION_DOT":"0.00002031"},{"EPOCH":"2023-05-01T09:13:14.681280","APOAPSIS":"548.252","PERIAPSIS":"546.178","OBJECT_TYPE":"PAYLOAD","NORAD_CAT_ID":"46053","MEAN_ANOMALY":"274.1514","CENTER_NAME":"EARTH","ECCENTRICITY":"0.00014970","GP_ID":"231017559","CLASSIFICATION_TYPE":"U","PERIOD":"95.592","RA_OF_ASC_NODE":"120.1954","TLE_LINE1":"1 46053U 20055AC  23121.38419770  .00010016  00000-0  69037-3 0  9994","INCLINATION":"53.0526","FILE":"3898258","MEAN_MOTION_DOT":"0.00010016","SEMIMAJOR_AXIS":"6925.350","OBJECT_ID":"2020-055AC","EPHEMERIS_TYPE":"0","TIME_SYSTEM":"UTC","LAUNCH_DATE":"2020-08-07","SITE":"AFETR","TLE_LINE2":"2 46053  53.0526 120.1954 0001497  85.9646 274.1514 15.06399495151789","ELEMENT_SET_NO":"999","OBJECT_NAME":"STARLINK-1543","MEAN_ELEMENT_THEORY":"SGP4","MEAN_MOTION_DDOT":"0.0000000000000","COUNTRY_CODE":"US","MEAN_MOTION":"15.06399495","REF_FRAME":"TEME","BSTAR":"0.00069037000000","DECAY_DATE":null,"RCS_SIZE":"LARGE","ARG_OF_PERICENTER":"85.9646","REV_AT_EPOCH":"15178"},{"REV_AT_EPOCH":"15176","DECAY_DATE":null,"RCS_SIZE":"LARGE","BSTAR":"0.00053544000000","ARG_OF_PERICENTER":"87.8658","MEAN_MOTION":"15.06405130","REF_FRAME":"TEME","MEAN_MOTION_DDOT":"0.0000000000000","COUNTRY_CODE":"US","OBJECT_NAME":"STARLINK-1548","MEAN_ELEMENT_THEORY":"SGP4","TLE_LINE2":"2 46054  53.0522 120.7576 0001700  87.8658 272.2525 15.06405130151766","ELEMENT_SET_NO":"999","TIME_SYSTEM":"UTC","LAUNCH_DATE":"2020-08-07","SITE":"AFETR","EPHEMERIS_TYPE":"0","INCLINATION":"53.0522","FILE":"3898258","SEMIMAJOR_AXIS":"6925.333","OBJECT_ID":"2020-055AD","MEAN_MOTION_DOT":"0.00007704","TLE_LINE1":"1 46054U 20055AD  23121.25884838  .00007704  00000-0  53544-3 0  9998","PERIOD":"95.592","RA_OF_ASC_NODE":"120.7576","CLASSIFICATION_TYPE":"U","CENTER_NAME":"EARTH","ECCENTRICITY":"0.00017000","GP_ID":"231018308","PERIAPSIS":"546.021","NORAD_CAT_ID":"46054","OBJECT_TYPE":"PAYLOAD","MEAN_ANOMALY":"272.2525","EPOCH":"2023-05-01T06:12:44.500032","APOAPSIS":"548.375"},{"SITE":"AFETR","LAUNCH_DATE":"2020-08-07","TIME_SYSTEM":"UTC","ELEMENT_SET_NO":"999","TLE_LINE2":"2 46055  53.0526 120.2305 0001493  86.1202 273.9957 15.06398776151788","MEAN_ELEMENT_THEORY":"SGP4","OBJECT_NAME":"STARLINK-1554","COUNTRY_CODE":"US","MEAN_MOTION_DDOT":"0.0000000000000","REF_FRAME":"TEME","MEAN_MOTION":"15.06398776","DECAY_DATE":null,"RCS_SIZE":"LARGE","BSTAR":"0.00013534000000","ARG_OF_PERICENTER":"86.1202","REV_AT_EPOCH":"15178","APOAPSIS":"548.251","EPOCH":"2023-05-01T09:02:35.054304","NORAD_CAT_ID":"46055","OBJECT_TYPE":"PAYLOAD","MEAN_ANOMALY":"273.9957","PERIAPSIS":"546.183","GP_ID":"231016558","ECCENTRICITY":"0.00014930","CENTER_NAME":"EARTH","CLASSIFICATION_TYPE":"U","RA_OF_ASC_NODE":"120.2305","PERIOD":"95.592","TLE_LINE1":"1 46055U 20055AE  23121.37679461  .00001735  00000-0  13534-3 0  9999","OBJECT_ID":"2020-055AE","FILE":"3898258","SEMIMAJOR_AXIS":"6925.352","MEAN_MOTION_DOT":"0.00001735","INCLINATION":"53.0526","EPHEMERIS_TYPE":"0"},{"OBJECT_NAME":"STARLINK-1561","MEAN_ELEMENT_THEORY":"SGP4","TLE_LINE2":"2 46056  53.0463 111.8850 0001258  98.6905 223.6877 15.67414550  1308","ELEMENT_SET_NO":"999","TIME_SYSTEM":"UTC","SITE":"AFETR","LAUNCH_DATE":"2020-08-07","REV_AT_EPOCH":"130","BSTAR":"0.00996860000000","DECAY_DATE":null,"RCS_SIZE":"LARGE","ARG_OF_PERICENTER":"98.6905","MEAN_MOTION":"15.67414550","REF_FRAME":"TEME","MEAN_MOTION_DDOT":"0.0000000000000","COUNTRY_CODE":"US","CLASSIFICATION_TYPE":"U","CENTER_NAME":"EARTH","ECCENTRICITY":"0.00012580","GP_ID":"231050870","PERIAPSIS":"365.457","NORAD_CAT_ID":"46056","OBJECT_TYPE":"PAYLOAD","MEAN_ANOMALY":"223.6877","EPOCH":"2023-05-02T00:00:02.000160","APOAPSIS":"367.154","EPHEMERIS_TYPE":"0","INCLINATION":"53.0463","OBJECT_ID":"2020-055AF","FILE":"3898518","SEMIMAJOR_AXIS":"6744.440","MEAN_MOTION_DOT":"0.01224891","TLE_LINE1":"1 46056U 20055AF  23122.00002315  .01224891  00000-0  99686-2 0  9991","PERIOD":"91.871","RA_OF_ASC_NODE":"111.8850"},{"TLE_LINE1":"1 46058U 20055AH  23121.40996656  .00003888  00000-0  27971-3 0  9995","PERIOD":"95.592","RA_OF_ASC_NODE":"120.0803","EPHEMERIS_TYPE":"0","INCLINATION":"53.0526","FILE":"3898258","MEAN_MOTION_DOT":"0.00003888","SEMIMAJOR_AXIS":"6925.320","OBJECT_ID":"2020-055AH","PERIAPSIS":"546.382","MEAN_ANOMALY":"273.1401","OBJECT_TYPE":"PAYLOAD","NORAD_CAT_ID":"46058","EPOCH":"2023-05-01T09:50:21.110784","APOAPSIS":"547.988","CLASSIFICATION_TYPE":"U","CENTER_NAME":"EARTH","ECCENTRICITY":"0.00011600","GP_ID":"231018058","MEAN_MOTION":"15.06409364","REF_FRAME":"TEME","MEAN_MOTION_DDOT":"0.0000000000000","COUNTRY_CODE":"US","REV_AT_EPOCH":"15178","DECAY_DATE":null,"RCS_SIZE":"LARGE","ARG_OF_PERICENTER":"86.9720","BSTAR":"0.00027971000000","TLE_LINE2":"2 46058  53.0526 120.0803 0001160  86.9720 273.1401 15.06409364151788","ELEMENT_SET_NO":"999","TIME_SYSTEM":"UTC","LAUNCH_DATE":"2020-08-07","SITE":"AFETR","OBJECT_NAME":"STARLINK-1564","MEAN_ELEMENT_THEORY":"SGP4"},{"LAUNCH_DATE":"2020-08-07","SITE":"AFETR","TIME_SYSTEM":"UTC","ELEMENT_SET_NO":"999","TLE_LINE2":"2 46059  53.0529 119.7458 0001465  92.8717 267.2440 15.06395533151759","OBJECT_NAME":"STARLINK-1570","MEAN_ELEMENT_THEORY":"SGP4","COUNTRY_CODE":"US","MEAN_MOTION_DDOT":"0.0000000000000","MEAN_MOTION":"15.06395533","REF_FRAME":"TEME","DECAY_DATE":null,"ARG_OF_PERICENTER":"92.8717","RCS_SIZE":"LARGE","BSTAR":"0.00012290000000","REV_AT_EPOCH":"15175","APOAPSIS":"548.242","EPOCH":"2023-05-01T11:36:31.171104","PERIAPSIS":"546.213","OBJECT_TYPE":"PAYLOAD","MEAN_ANOMALY":"267.2440","NORAD_CAT_ID":"46059","ECCENTRICITY":"0.00014650","GP_ID":"231017809","CENTER_NAME":"EARTH","CLASSIFICATION_TYPE":"U","RA_OF_ASC_NODE":"119.7458","PERIOD":"95.592","TLE_LINE1":"1 46059U 20055AJ  23121.48369411  .00001549  00000-0  12290-3 0  9997","SEMIMAJOR_AXIS":"6925.362","FILE":"3898258","OBJECT_ID":"2020-055AJ","MEAN_MOTION_DOT":"0.00001549","INCLINATION":"53.0529","EPHEMERIS_TYPE":"0"},{"OBJECT_NAME":"STARLINK-1572","MEAN_ELEMENT_THEORY":"SGP4","LAUNCH_DATE":"2020-08-07","SITE":"AFETR","TIME_SYSTEM":"UTC","ELEMENT_SET_NO":"999","TLE_LINE2":"2 46060  53.0521 120.9578 0001761  78.7134 281.4052 15.06415067151724","DECAY_DATE":null,"BSTAR":"0.00014912000000","RCS_SIZE":"LARGE","ARG_OF_PERICENTER":"78.7134","REV_AT_EPOCH":"15172","COUNTRY_CODE":"US","MEAN_MOTION_DDOT":"0.0000000000000","MEAN_MOTION":"15.06415067","REF_FRAME":"TEME","ECCENTRICITY":"0.00017610","GP_ID":"231017059","CENTER_NAME":"EARTH","CLASSIFICATION_TYPE":"U","APOAPSIS":"548.387","EPOCH":"2023-05-01T05:09:02.858688","PERIAPSIS":"545.948","MEAN_ANOMALY":"281.4052","OBJECT_TYPE":"PAYLOAD","NORAD_CAT_ID":"46060","OBJECT_ID":"2020-055AK","FILE":"3898258","SEMIMAJOR_AXIS":"6925.302","MEAN_MOTION_DOT":"0.00001941","INCLINATION":"53.0521","EPHEMERIS_TYPE":"0","RA_OF_ASC_NODE":"120.9578","PERIOD":"95.591","TLE_LINE1":"1 46060U 20055AK  23121.21461642  .00001941  00000-0  14912-3 0  9998"},{"PERIAPSIS":"545.738","OBJECT_TYPE":"PAYLOAD","NORAD_CAT_ID":"46061","MEAN_ANOMALY":"229.0064","EPOCH":"2023-05-01T11:20:35.019456","APOAPSIS":"548.645","CLASSIFICATION_TYPE":"U","CENTER_NAME":"EARTH","ECCENTRICITY":"0.00020990","GP_ID":"231017309","TLE_LINE1":"1 46061U 20055AL  23121.47262754  .00007349  00000-0  51164-3 0  9998","PERIOD":"95.592","RA_OF_ASC_NODE":"119.7977","EPHEMERIS_TYPE":"0","INCLINATION":"53.0516","SEMIMAJOR_AXIS":"6925.327","FILE":"3898258","OBJECT_ID":"2020-055AL","MEAN_MOTION_DOT":"0.00007349","TLE_LINE2":"2 46061  53.0516 119.7977 0002099 131.1106 229.0064 15.06407133151799","ELEMENT_SET_NO":"999","TIME_SYSTEM":"UTC","LAUNCH_DATE":"2020-08-07","SITE":"AFETR","OBJECT_NAME":"STARLINK-1573","MEAN_ELEMENT_THEORY":"SGP4","MEAN_MOTION":"15.06407133","REF_FRAME":"TEME","MEAN_MOTION_DDOT":"0.0000000000000","COUNTRY_CODE":"US","REV_AT_EPOCH":"15179","DECAY_DATE":null,"RCS_SIZE":"LARGE","ARG_OF_PERICENTER":"131.1106","BSTAR":"0.00051164000000"}];
